{"type": "FeatureCollection", "features": [ {"type": "Feature", "properties": {"norad_id": 66663, "name": "KSLV-II R/B", "group": "last-30-days", "lat": -32.58998352985151, "lon": 81.01019489233602, "alt_km": 603.6628953143472, "timestamp": "2025-12-04T13:51:59.229009+00:00", "meta": {"OBJECT_NAME": "KSLV-II R/B", "OBJECT_ID": "2025-274P", "EPOCH": "2025-12-03T17:40:07.524480", "MEAN_MOTION": 14.9720213, "ECCENTRICITY": 0.00461454, "INCLINATION": 97.7399, "RA_OF_ASC_NODE": 265.1649, "ARG_OF_PERICENTER": 348.9678, "MEAN_ANOMALY": 11.0527, "EPHEMERIS_TYPE": 0, "CLASSIFICATION_TYPE": "U", "NORAD_CAT_ID": 66663, "ELEMENT_SET_NO": 999, "REV_AT_EPOCH": 106, "BSTAR": -0.00011329547, "MEAN_MOTION_DOT": -1.401e-05, "MEAN_MOTION_DDOT": 0}, "tle": {"line1": "1 66663U 25274P   25337.73619820 -.00001401  00000+0 -11330-3 0  9991", "line2": "2 66663  97.7399 265.1649 0046145 348.9678  11.0527 14.97202130  1063"}}, "geometry": {"type": "Point", "coordinates": [81.01019489233602, -32.58998352985151]}}, {"type": "Feature", "properties": {"norad_id": 66664, "name": "SOYUZ-MS 28", "group": "last-30-days", "lat": -9.380433836464265, "lon": 10.407809676650206, "alt_km": 418.19866349757285, "timestamp": "2025-12-04T13:51:59.229019+00:00", "meta": {"OBJECT_NAME": "SOYUZ-MS 28", "OBJECT_ID": "2025-275A", "EPOCH": "2025-12-04T02:12:18.455328", "MEAN_MOTION": 15.49293095, "ECCENTRICITY": 0.00036281, "INCLINATION": 51.6302, "RA_OF_ASC_NODE": 185.2932, "ARG_OF_PERICENTER": 200.9086, "MEAN_ANOMALY": 159.1754, "EPHEMERIS_TYPE": 0, "CLASSIFICATION_TYPE": "U", "NORAD_CAT_ID": 66664, "ELEMENT_SET_NO": 999, "REV_AT_EPOCH": 110, "BSTAR": 0.00029177423, "MEAN_MOTION_DOT": 0.00015824, "MEAN_MOTION_DDOT": 0}, "tle": {"line1": "1 66664U 25275A   25338.09188027  .00015824  00000+0  29177-3 0  9993", "line2": "2 66664  51.6302 185.2932 0003628 200.9086 159.1754 15.49293095  1102"}}, "geometry": {"type": "Point", "coordinates": [10.407809676650206, -9.380433836464265]}}, {"type": "Feature", "properties": {"norad_id": 66820, "name": "KOMPSAT-7", "group": "last-30-days", "lat": -79.02605632616446, "lon": 60.818359274497105, "alt_km": 572.9308551679824, "timestamp": "2025-12-04T13:51:59.229032+00:00", "meta": {"OBJECT_NAME": "KOMPSAT-7", "OBJECT_ID": "2025-279A", "EPOCH": "2025-12-01T20:35:16.060992", "MEAN_MOTION": 14.98310631, "ECCENTRICITY": 0.00097501, "INCLINATION": 97.6394, "RA_OF_ASC_NODE": 281.9587, "ARG_OF_PERICENTER": 255.3935, "MEAN_ANOMALY": 104.6207, "EPHEMERIS_TYPE": 0, "CLASSIFICATION_TYPE": "U", "NORAD_CAT_ID": 66820, "ELEMENT_SET_NO": 999, "REV_AT_EPOCH": 2, "BSTAR": 8.4407298e-05, "MEAN_MOTION_DOT": 9.47e-06, "MEAN_MOTION_DDOT": 0}, "tle": {"line1": "1 66820U 25279A   25335.85782478  .00000947  00000+0  84407-4 0  9990", "line2": "2 66820  97.6394 281.9587 0009750 255.3935 104.6207 14.98310631    23"}}, "geometry": {"type": "Point", "coordinates": [60.818359274497105, -79.02605632616446]}}, {"type": "Feature", "properties": {"norad_id": 66877, "name": "DUMMY PAYLOAD", "group": "last-30-days", "lat": -27.6149808360172, "lon": -71.61505902346298, "alt_km": 150.52180138258973, "timestamp": "2025-12-04T13:51:59.229043+00:00", "meta": {"OBJECT_NAME": "DUMMY PAYLOAD", "OBJECT_ID": "2025-282A", "EPOCH": "2025-12-03T15:09:12.901248", "MEAN_MOTION": 14.3609088, "ECCENTRICITY": 0.08801968, "INCLINATION": 56.9533, "RA_OF_ASC_NODE": 91.9802, "ARG_OF_PERICENTER": 204.505, "MEAN_ANOMALY": 151.1619, "EPHEMERIS_TYPE": 0, "CLASSIFICATION_TYPE": "U", "NORAD_CAT_ID": 66877, "ELEMENT_SET_NO": 999, "REV_AT_EPOCH": 7, "BSTAR": 0.00014053244, "MEAN_MOTION_DOT": 0.00737234, "MEAN_MOTION_DDOT": 7.156601e-06}, "tle": {"line1": "1 66877U 25282A   25337.63139932  .00737234  71566-5  14053-3 0  9991", "line2": "2 66877  56.9533  91.9802 0880196 204.5050 151.1619 14.36090880    74"}}, "geometry": {"type": "Point", "coordinates": [-71.61505902346298, -27.6149808360172]}}]}